{
  "norad_id": 57503,
  "name": "STARLINK-30230",
  "history": [
    {
      "epoch": "2026-03-28T21:20:21.900768",
      "apogee_km": 486.8559722875343,
      "perigee_km": 484.2450255629428,
      "latitude_deg": 4.686475151692927,
      "longitude_deg": 15.657667519990355,
      "semi_major_axis_km": 6863.687498925238,
      "eccentricity": 0.0001902,
      "inclination_deg": 42.9901,
      "raan_deg": 267.4542,
      "arg_perigee_deg": 73.6234,
      "mean_anomaly_deg": 286.4826,
      "mean_motion_rev_day": 15.26745009
    }
  ]
}