{"fetched_at":"2026-03-29T16:36:15Z","count":15609,"tles":[{"name":"STARLINK-30230","line1":"1 57503U 23113J   26087.88914237  .00002799  00000+0  11398-3 0  9996","line2":"2 57503  42.9901 267.4542 0001902  73.6234 286.4826 15.26745009146505","category":"Starlink"}]}